[{"OBJECT_NAME":"STARLINK-34395","OBJECT_ID":"2025-139E","EPOCH":"2026-03-09T10:38:24.266688","MEAN_MOTION":15.3021562,"ECCENTRICITY":0.00012794,"INCLINATION":53.1579,"RA_OF_ASC_NODE":128.3788,"ARG_OF_PERICENTER":82.1389,"MEAN_ANOMALY":277.9757,"EPHEMERIS_TYPE":0,"CLASSIFICATION_TYPE":"U","NORAD_CAT_ID":64668,"ELEMENT_SET_NO":999,"REV_AT_EPOCH":4024,"BSTAR":0.0011005667,"MEAN_MOTION_DOT":0.00032394,"MEAN_MOTION_DDOT":0},{"OBJECT_NAME":"FENGYUN 1C DEB","OBJECT_ID":"1999-025AQG","EPOCH":"2026-03-09T10:43:06.043872","MEAN_MOTION":15.25746961,"ECCENTRICITY":0.00178142,"INCLINATION":98.9311,"RA_OF_ASC_NODE":250.2123,"ARG_OF_PERICENTER":328.3876,"MEAN_ANOMALY":31.6286,"EPHEMERIS_TYPE":0,"CLASSIFICATION_TYPE":"U","NORAD_CAT_ID":30674,"ELEMENT_SET_NO":999,"REV_AT_EPOCH":98658,"BSTAR":0.015201752,"MEAN_MOTION_DOT":0.00411052,"MEAN_MOTION_DDOT":0}]
